[{"OBJECT_NAME":"ICEYE-X4","OBJECT_ID":"2019-038D","EPOCH":"2026-03-09T23:53:58.416000","MEAN_MOTION":15.26985132,"ECCENTRICITY":0.00122769,"INCLINATION":97.8888,"RA_OF_ASC_NODE":96.1923,"ARG_OF_PERICENTER":293.9914,"MEAN_ANOMALY":66.0038,"EPHEMERIS_TYPE":0,"CLASSIFICATION_TYPE":"U","NORAD_CAT_ID":44390,"ELEMENT_SET_NO":999,"REV_AT_EPOCH":36665,"BSTAR":0.00049915294,"MEAN_MOTION_DOT":0.00013179,"MEAN_MOTION_DDOT":0},{"OBJECT_NAME":"STARLINK-35796","OBJECT_ID":"2025-265AB","EPOCH":"2026-03-09T23:03:38.767968","MEAN_MOTION":15.27599979,"ECCENTRICITY":0.00010863,"INCLINATION":43.0032,"RA_OF_ASC_NODE":276.5118,"ARG_OF_PERICENTER":274.2351,"MEAN_ANOMALY":85.8377,"EPHEMERIS_TYPE":0,"CLASSIFICATION_TYPE":"U","NORAD_CAT_ID":66541,"ELEMENT_SET_NO":999,"REV_AT_EPOCH":1715,"BSTAR":0.0014177642,"MEAN_MOTION_DOT":0.00038982,"MEAN_MOTION_DDOT":0}]
